LEMUR-2-HUBBLE-4        
1 64565U 25135AP  26195.94021597  .00000933  00000+0  93600-4 0  9998
2 64565  97.7719 309.5247 0002651 162.7067 197.4243 14.93685564 58016
LEMUR-2-SEJONG-2        
1 64586U 25135BL  26196.24827894  .00002161  00000+0  19331-3 0  9992
2 64586  97.7708 311.0834 0003971 218.5313 141.5625 14.96911900 58144
LEMUR-2-HUBBLE-5        
1 64840U 25135BT  26196.15003953  .00000695  00000+0  70218-4 0  9999
2 64840  97.7741 310.4010 0004314 235.4221 124.6592 14.94213621 58082
LEMUR-2-KARENDARRELL    
1 64841U 25135BU  26195.86302757  .00004225  00000+0  33968-3 0  9994
2 64841  97.7716 312.0347 0012409 105.8170 254.4422 15.00496961 58164
LEMUR-2-LUCILLE-ROSE    
1 65403U 25135BV  26195.83647656  .00003451  00000+0  27830-3 0  9997
2 65403  97.7711 312.0433 0014882 190.0513 170.0415 15.00486338 52788
LEMUR-2-AFFIE-WAUWIE    
1 66295U 25248C   26195.38884985  .00012991  00000+0  47322-3 0  9997
2 66295  45.3893 327.4899 0008759 246.6108 113.3860 15.28229453 38756
OTTER SDM               
1 66678U 25276N   26196.16317338  .00003557  00000+0  16803-3 0  9991
2 66678  97.4206 269.1787 0004296 254.0411 106.0351 15.20056680 34669
LEMUR-2-STAS-GORBUK     
1 66686U 25276W   26196.18459675  .00002841  00000+0  13639-3 0  9992
2 66686  97.4240 269.2517 0003614 248.2139 111.8711 15.19658337 34662
LEMUR-2-TEODOR          
1 66768U 25276DG  26196.13761225  .00003242  00000+0  14786-3 0  9995
2 66768  97.4145 269.4772 0002214  86.8721 273.2768 15.21337141 34698
LEMUR-2-LAILA           
1 66776U 25276DQ  26196.17318584  .00003014  00000+0  13678-3 0  9990
2 66776  97.4169 269.6508 0002925  94.5398 265.6172 15.21563113 34703
LEMUR-2-CELIJO-SB-PK    
1 66781U 25276DW  26196.18488120  .00002627  00000+0  21423-3 0  9997
2 66781  97.5197 266.0383 0007031  64.1114 296.0834 15.00282855 26820
LEMUR-2-FINNIAN         
1 66782U 25276DX  26195.42167484  .00001590  00000+0  13038-3 0  9992
2 66782  97.5382 265.5655 0008441 359.1143   1.0065 15.00610397 24080
LEMUR-2-STARLIGHT       
1 66783U 25276DY  26196.13573131  .00003663  00000+0  30359-3 0  9990
2 66783  97.5237 265.8187 0014726  47.7053 312.5417 14.99354208 34384
LEMUR-2-TARTIFLETTE     
1 66784U 25276DZ  26196.13413113  .00003474  00000+0  28834-3 0  9999
2 66784  97.5234 265.8257 0013930  55.8396 304.4146 14.99339516 34380
LEMUR-2-VUKASIN         
1 66785U 25276EA  26196.17122191  .00002434  00000+0  19749-3 0  9997
2 66785  97.5225 266.2203 0003058  55.3107 304.8405 15.00546276 34346
LEMUR-2-HOTSPUR-TOM     
1 66786U 25276EB  26196.12852904  .00002961  00000+0  24710-3 0  9994
2 66786  97.5219 265.7945 0013794  47.1826 313.0554 14.99240600 34315
